{"type":"FeatureCollection","features":[{"type":"Feature","properties":{"name":"Mangyshlak","iso_a3":"KAZ","population":147443,"is_capital":false},"geometry":{"type":"Point","coordinates":[51.1417356,43.6904551]}},{"type":"Feature","properties":{"name":"Celeken","iso_a3":"TKM","population":1206,"is_capital":false},"geometry":{"type":"Point","coordinates":[53.1225912,39.4361549]}},{"type":"Feature","properties":{"name":"Shahrud","iso_a3":"IRN","population":131889,"is_capital":false},"geometry":{"type":"Point","coordinates":[54.9628877,36.4228788]}},{"type":"Feature","properties":{"name":"Zanjan","iso_a3":"IRN","population":357471,"is_capital":false},"geometry":{"type":"Point","coordinates":[48.5000264,36.6700214]}},{"type":"Feature","properties":{"name":"Ahar","iso_a3":"IRN","population":103639,"is_capital":false},"geometry":{"type":"Point","coordinates":[47.0629048,38.4829081]}},{"type":"Feature","properties":{"name":"Balkanabat","iso_a3":"TKM","population":110827,"is_capital":false},"geometry":{"type":"Point","coordinates":[54.3649397,39.5123802]}},{"type":"Feature","properties":{"name":"Kaspiysk","iso_a3":"RUS","population":81752,"is_capital":false},"geometry":{"type":"Point","coordinates":[47.6243693,42.8747331]}},{"type":"Feature","properties":{"name":"Derbent","iso_a3":"RUS","population":105965,"is_capital":false},"geometry":{"type":"Point","coordinates":[48.2774043,42.0578062]}},{"type":"Feature","properties":{"name":"Buynaksk","iso_a3":"RUS","population":75800,"is_capital":false},"geometry":{"type":"Point","coordinates":[47.113031,42.8334953]}},{"type":"Feature","properties":{"name":"Gonbad-e Kavus","iso_a3":"IRN","population":159982,"is_capital":false},"geometry":{"type":"Point","coordinates":[55.1714538,37.2518205]}},{"type":"Feature","properties":{"name":"Gorgan","iso_a3":"IRN","population":281023,"is_capital":false},"geometry":{"type":"Point","coordinates":[54.4800232,36.8303475]}},{"type":"Feature","properties":{"name":"Amol","iso_a3":"IRN","population":221650,"is_capital":false},"geometry":{"type":"Point","coordinates":[52.3633048,36.4713255]}},{"type":"Feature","properties":{"name":"Sari","iso_a3":"IRN","population":271467,"is_capital":false},"geometry":{"type":"Point","coordinates":[53.100004,36.5503904]}},{"type":"Feature","properties":{"name":"Semnan","iso_a3":"IRN","population":124826,"is_capital":false},"geometry":{"type":"Point","coordinates":[53.3743025,35.5547923]}},{"type":"Feature","properties":{"name":"Karaj","iso_a3":"IRN","population":1423000,"is_capital":false},"geometry":{"type":"Point","coordinates":[50.968059,35.8023046]}},{"type":"Feature","properties":{"name":"Fort Shevchenko","iso_a3":"KAZ","population":5213,"is_capital":false},"geometry":{"type":"Point","coordinates":[50.2666369,44.5170618]}},{"type":"Feature","properties":{"name":"Zhangaozen","iso_a3":"KAZ","population":8895,"is_capital":false},"geometry":{"type":"Point","coordinates":[52.8000223,43.3003919]}},{"type":"Feature","properties":{"name":"Mahabad","iso_a3":"IRN","population":162434,"is_capital":false},"geometry":{"type":"Point","coordinates":[45.7200411,36.770377]}},{"type":"Feature","properties":{"name":"Maragheh","iso_a3":"IRN","population":151385,"is_capital":false},"geometry":{"type":"Point","coordinates":[46.2200105,37.420389]}},{"type":"Feature","properties":{"name":"Bijar","iso_a3":"IRN","population":53871,"is_capital":false},"geometry":{"type":"Point","coordinates":[47.5936735,35.8740751]}},{"type":"Feature","properties":{"name":"Kapan","iso_a3":"ARM","population":42288,"is_capital":false},"geometry":{"type":"Point","coordinates":[46.4149857,39.2015206]}},{"type":"Feature","properties":{"name":"Makhachkala","iso_a3":"RUS","population":554981,"is_capital":false},"geometry":{"type":"Point","coordinates":[47.4999841,42.9800238]}},{"type":"Feature","properties":{"name":"Balyqshy","iso_a3":"KAZ","population":31624,"is_capital":false},"geometry":{"type":"Point","coordinates":[51.8665909,47.0665961]}},{"type":"Feature","properties":{"name":"Qulsary","iso_a3":"KAZ","population":37103,"is_capital":false},"geometry":{"type":"Point","coordinates":[54.0165372,46.9832678]}},{"type":"Feature","properties":{"name":"Ardabil","iso_a3":"IRN","population":414603,"is_capital":false},"geometry":{"type":"Point","coordinates":[48.3000386,38.2500025]}},{"type":"Feature","properties":{"name":"Qazvin","iso_a3":"IRN","population":464551,"is_capital":false},"geometry":{"type":"Point","coordinates":[49.9999865,36.27002]}},{"type":"Feature","properties":{"name":"Beyneu","iso_a3":"KAZ","population":32452,"is_capital":false},"geometry":{"type":"Point","coordinates":[55.100037,45.1833519]}},{"type":"Feature","properties":{"name":"Aqtau","iso_a3":"KAZ","population":4479,"is_capital":false},"geometry":{"type":"Point","coordinates":[51.2365002,43.6231887]}},{"type":"Feature","properties":{"name":"Rasht","iso_a3":"IRN","population":594590,"is_capital":false},"geometry":{"type":"Point","coordinates":[49.6299833,37.2999829]}},{"type":"Feature","properties":{"name":"Türkmenbaşy","iso_a3":"TKM","population":68292,"is_capital":false},"geometry":{"type":"Point","coordinates":[52.9696761,40.0230467]}},{"type":"Feature","properties":{"name":"Astrakhan","iso_a3":"RUS","population":502533,"is_capital":false},"geometry":{"type":"Point","coordinates":[48.054989,46.3486554]}},{"type":"Feature","properties":{"name":"Grozny","iso_a3":"RUS","population":226100,"is_capital":false},"geometry":{"type":"Point","coordinates":[45.6986987,43.3186853]}},{"type":"Feature","properties":{"name":"Atyrau","iso_a3":"KAZ","population":182753,"is_capital":false},"geometry":{"type":"Point","coordinates":[51.9200244,47.1126915]}},{"type":"Feature","properties":{"name":"Tabriz","iso_a3":"IRN","population":1413000,"is_capital":false},"geometry":{"type":"Point","coordinates":[46.2993,38.0882374]}},{"type":"Feature","properties":{"name":"Baku","iso_a3":"AZE","population":2122300,"is_capital":true,"name_az":"Bakı","place_type":"city","label_rank":1},"geometry":{"type":"Point","coordinates":[49.8602713,40.3972179]}},{"type":"Feature","properties":{"name":"Tehran","iso_a3":"IRN","population":7873000,"is_capital":true},"geometry":{"type":"Point","coordinates":[51.4223982,35.6738886]}},{"type":"Feature","properties":{"name":"Ganja","name_az":"Gəncə","iso_a3":"AZE","place_type":"city","label_rank":1,"population":303268},"geometry":{"type":"Point","coordinates":[46.3500284,40.684996]}},{"type":"Feature","properties":{"name":"Sumgait","name_az":"Sumqayıt","iso_a3":"AZE","place_type":"city","label_rank":1,"population":279159},"geometry":{"type":"Point","coordinates":[49.6299833,40.5800153]}},{"type":"Feature","properties":{"name":"Nakhchivan","name_az":"Naxçıvan","iso_a3":"AZE","place_type":"city","label_rank":1,"population":94788},"geometry":{"type":"Point","coordinates":[45.412222222,39.208888888]}},{"type":"Feature","properties":{"name":"Lankaran","name_az":"Lənkəran","iso_a3":"AZE","place_type":"city","label_rank":1,"population":60180},"geometry":{"type":"Point","coordinates":[48.8510644,38.7540027]}},{"type":"Feature","properties":{"name":"Shaki","name_az":"Şəki","iso_a3":"AZE","place_type":"city","label_rank":1,"population":64968},"geometry":{"type":"Point","coordinates":[47.1705468,41.1923293]}},{"type":"Feature","properties":{"name":"Shirvan","name_az":"Şirvan","iso_a3":"AZE","place_type":"city","label_rank":1,"population":70684},"geometry":{"type":"Point","coordinates":[48.9202592,39.9323029]}},{"type":"Feature","properties":{"name":"Khankendi","name_az":"Xankəndi","iso_a3":"AZE","place_type":"city","label_rank":1,"population":57473},"geometry":{"type":"Point","coordinates":[46.7519677,39.8156433]}},{"type":"Feature","properties":{"name":"Mingachevir","name_az":"Mingəçevir","iso_a3":"AZE","place_type":"city","label_rank":1,"population":null},"geometry":{"type":"Point","coordinates":[47.04889,40.77]}},{"type":"Feature","properties":{"name":"Yevlakh","name_az":"Yevlax","iso_a3":"AZE","place_type":"city","label_rank":2,"population":53716},"geometry":{"type":"Point","coordinates":[47.1500313,40.6171965]}},{"type":"Feature","properties":{"name":"Goychay","name_az":"Göyçay","iso_a3":"AZE","place_type":"city","label_rank":2,"population":35348},"geometry":{"type":"Point","coordinates":[47.7405896,40.6534217]}},{"type":"Feature","properties":{"name":"Aghdam","name_az":"Ağdam","iso_a3":"AZE","place_type":"city","label_rank":2,"population":null},"geometry":{"type":"Point","coordinates":[45.5563889,40.9052778]}},{"type":"Feature","properties":{"name":"Shamakhi","name_az":"Şamaxı","iso_a3":"AZE","place_type":"city","label_rank":2,"population":null},"geometry":{"type":"Point","coordinates":[48.64139,40.63028]}},{"type":"Feature","properties":{"name":"Zaqatala","name_az":"Zaqatala","iso_a3":"AZE","place_type":"city","label_rank":2,"population":null},"geometry":{"type":"Point","coordinates":[46.643333333,41.633611111]}},{"type":"Feature","properties":{"name":"Quba","name_az":"Quba","iso_a3":"AZE","place_type":"city","label_rank":2,"population":null},"geometry":{"type":"Point","coordinates":[48.526388888,41.365277777]}},{"type":"Feature","properties":{"name":"Qusar","name_az":"Qusar","iso_a3":"AZE","place_type":"city","label_rank":2,"population":null},"geometry":{"type":"Point","coordinates":[48.421388888,41.421944444]}},{"type":"Feature","properties":{"name":"Khachmaz","name_az":"Xaçmaz","iso_a3":"AZE","place_type":"city","label_rank":2,"population":null},"geometry":{"type":"Point","coordinates":[48.802777777,41.468055555]}},{"type":"Feature","properties":{"name":"Barda","name_az":"Bərdə","iso_a3":"AZE","place_type":"city","label_rank":2,"population":null},"geometry":{"type":"Point","coordinates":[47.118611111,40.383055555]}},{"type":"Feature","properties":{"name":"Tartar","name_az":"Tərtər","iso_a3":"AZE","place_type":"city","label_rank":2,"population":null},"geometry":{"type":"Point","coordinates":[46.930277777,40.335277777]}},{"type":"Feature","properties":{"name":"Fuzuli","name_az":"Füzuli","iso_a3":"AZE","place_type":"city","label_rank":2,"population":null},"geometry":{"type":"Point","coordinates":[47.143056,39.600278]}},{"type":"Feature","properties":{"name":"Imishli","name_az":"İmişli","iso_a3":"AZE","place_type":"city","label_rank":2,"population":null},"geometry":{"type":"Point","coordinates":[48.06,39.869722222]}},{"type":"Feature","properties":{"name":"Sabirabad","name_az":"Sabirabad","iso_a3":"AZE","place_type":"city","label_rank":2,"population":null},"geometry":{"type":"Point","coordinates":[48.471944444,40.005277777]}},{"type":"Feature","properties":{"name":"Salyan","name_az":"Salyan","iso_a3":"AZE","place_type":"city","label_rank":2,"population":null},"geometry":{"type":"Point","coordinates":[48.984722222,39.596111111]}},{"type":"Feature","properties":{"name":"Jalilabad","name_az":"Cəlilabad","iso_a3":"AZE","place_type":"city","label_rank":2,"population":null},"geometry":{"type":"Point","coordinates":[48.495833333,39.204166666]}},{"type":"Feature","properties":{"name":"Masalli","name_az":"Masallı","iso_a3":"AZE","place_type":"city","label_rank":2,"population":null},"geometry":{"type":"Point","coordinates":[48.672230175,39.032414235]}},{"type":"Feature","properties":{"name":"Qazakh","name_az":"Qazax","iso_a3":"AZE","place_type":"city","label_rank":2,"population":null},"geometry":{"type":"Point","coordinates":[45.366111111,41.093333333]}},{"type":"Feature","properties":{"name":"Agstafa","name_az":"Ağstafa","iso_a3":"AZE","place_type":"city","label_rank":2,"population":null},"geometry":{"type":"Point","coordinates":[45.45,41.116666666]}},{"type":"Feature","properties":{"name":"Tovuz","name_az":"Tovuz","iso_a3":"AZE","place_type":"city","label_rank":2,"population":12626},"geometry":{"type":"Point","coordinates":[45.6288889,40.9922222]}},{"type":"Feature","properties":{"name":"Shamkir","name_az":"Şəmkir","iso_a3":"AZE","place_type":"city","label_rank":2,"population":null},"geometry":{"type":"Point","coordinates":[46.018888888,40.829722222]}},{"type":"Feature","properties":{"name":"Gadabay","name_az":"Gədəbəy","iso_a3":"AZE","place_type":"city","label_rank":2,"population":8657},"geometry":{"type":"Point","coordinates":[45.8161111,40.5655556]}},{"type":"Feature","properties":{"name":"Goranboy","name_az":"Goranboy","iso_a3":"AZE","place_type":"city","label_rank":2,"population":7333},"geometry":{"type":"Point","coordinates":[46.7897222,40.6102778]}},{"type":"Feature","properties":{"name":"Oghuz","name_az":"Oğuz","iso_a3":"AZE","place_type":"city","label_rank":2,"population":6876},"geometry":{"type":"Point","coordinates":[47.4583333,41.0708333]}},{"type":"Feature","properties":{"name":"Qabala","name_az":"Qəbələ","iso_a3":"AZE","place_type":"city","label_rank":2,"population":11867},"geometry":{"type":"Point","coordinates":[47.8458333,40.9813889]}},{"type":"Feature","properties":{"name":"Shusha","name_az":"Şuşa","iso_a3":"AZE","place_type":"city","label_rank":2,"population":null},"geometry":{"type":"Point","coordinates":[46.750376945,39.760213203]}},{"type":"Feature","properties":{"name":"Zangilan","name_az":"Zəngilan","iso_a3":"AZE","place_type":"city","label_rank":2,"population":null},"geometry":{"type":"Point","coordinates":[46.69694444,39.06555556]}},{"type":"Feature","properties":{"name":"Agdash","name_az":"Ağdaş","iso_a3":"AZE","place_type":"city","label_rank":3,"population":null},"geometry":{"type":"Point","coordinates":[47.483333333,40.65]}},{"type":"Feature","properties":{"name":"Aghjabadi","name_az":"Ağcabədi","iso_a3":"AZE","place_type":"city","label_rank":3,"population":null},"geometry":{"type":"Point","coordinates":[47.4502,40.048938888]}},{"type":"Feature","properties":{"name":"Agsu","name_az":"Ağsu","iso_a3":"AZE","place_type":"city","label_rank":3,"population":null},"geometry":{"type":"Point","coordinates":[48.392777777,40.570833333]}},{"type":"Feature","properties":{"name":"Astara","name_az":"Astara","iso_a3":"AZE","place_type":"city","label_rank":3,"population":null},"geometry":{"type":"Point","coordinates":[48.87861,38.45611]}},{"type":"Feature","properties":{"name":"Aghdara","name_az":"Ağdərə","iso_a3":"AZE","place_type":"city","label_rank":3,"population":null},"geometry":{"type":"Point","coordinates":[46.812778,40.215278]}},{"type":"Feature","properties":{"name":"Babek","name_az":"Babək","iso_a3":"AZE","place_type":"city","label_rank":3,"population":null},"geometry":{"type":"Point","coordinates":[45.441666666,39.151944444]}},{"type":"Feature","properties":{"name":"Balakən","name_az":"Balakən","iso_a3":"AZE","place_type":"city","label_rank":3,"population":null},"geometry":{"type":"Point","coordinates":[46.41648536,41.718572328]}},{"type":"Feature","properties":{"name":"Beylagan","name_az":"Beyləqan","iso_a3":"AZE","place_type":"city","label_rank":3,"population":null},"geometry":{"type":"Point","coordinates":[47.615555555,39.769166666]}},{"type":"Feature","properties":{"name":"Bilasuvar","name_az":"Biləsuvar","iso_a3":"AZE","place_type":"city","label_rank":3,"population":null},"geometry":{"type":"Point","coordinates":[48.545,39.45833]}},{"type":"Feature","properties":{"name":"Dashkasan","name_az":"Daşkəsən","iso_a3":"AZE","place_type":"city","label_rank":3,"population":null},"geometry":{"type":"Point","coordinates":[46.07722,40.49472]}},{"type":"Feature","properties":{"name":"Goygol","name_az":"Göygöl","iso_a3":"AZE","place_type":"city","label_rank":3,"population":null},"geometry":{"type":"Point","coordinates":[46.3239,40.5905]}},{"type":"Feature","properties":{"name":"Hajiqabul","name_az":"Hacıqabul","iso_a3":"AZE","place_type":"city","label_rank":3,"population":null},"geometry":{"type":"Point","coordinates":[48.935,40.0375]}},{"type":"Feature","properties":{"name":"Ismayilli","name_az":"İsmayıllı","iso_a3":"AZE","place_type":"city","label_rank":3,"population":null},"geometry":{"type":"Point","coordinates":[48.143888888,40.783888888]}},{"type":"Feature","properties":{"name":"Jabrayil","name_az":"Cəbrayıl","iso_a3":"AZE","place_type":"city","label_rank":3,"population":null},"geometry":{"type":"Point","coordinates":[47.02611111,39.4]}},{"type":"Feature","properties":{"name":"Julfa","name_az":"Culfa","iso_a3":"AZE","place_type":"city","label_rank":3,"population":null},"geometry":{"type":"Point","coordinates":[45.630833333,38.955833333]}},{"type":"Feature","properties":{"name":"Kalbajar","name_az":"Kəlbəcər","iso_a3":"AZE","place_type":"city","label_rank":3,"population":null},"geometry":{"type":"Point","coordinates":[46.038333333,40.106666666]}},{"type":"Feature","properties":{"name":"Khojavend","name_az":"Xocavənd","iso_a3":"AZE","place_type":"city","label_rank":3,"population":null},"geometry":{"type":"Point","coordinates":[47.11305556,39.79527778]}},{"type":"Feature","properties":{"name":"Khirdalan","name_az":"Xırdalan","iso_a3":"AZE","place_type":"city","label_rank":3,"population":null},"geometry":{"type":"Point","coordinates":[49.756388888,40.448611111]}},{"type":"Feature","properties":{"name":"Kurdamir","name_az":"Kürdəmir","iso_a3":"AZE","place_type":"city","label_rank":3,"population":null},"geometry":{"type":"Point","coordinates":[48.160833333,40.338333333]}},{"type":"Feature","properties":{"name":"Lerik","name_az":"Lerik","iso_a3":"AZE","place_type":"city","label_rank":3,"population":null},"geometry":{"type":"Point","coordinates":[48.415277777,38.775277777]}},{"type":"Feature","properties":{"name":"Naftalan","name_az":"Naftalan","iso_a3":"AZE","place_type":"city","label_rank":3,"population":null},"geometry":{"type":"Point","coordinates":[46.825,40.50667]}},{"type":"Feature","properties":{"name":"Neftchala","name_az":"Neftçala","iso_a3":"AZE","place_type":"city","label_rank":3,"population":null},"geometry":{"type":"Point","coordinates":[49.2486,39.3791]}},{"type":"Feature","properties":{"name":"Ordubad","name_az":"Ordubad","iso_a3":"AZE","place_type":"city","label_rank":3,"population":null},"geometry":{"type":"Point","coordinates":[46.023055555,38.904722222]}},{"type":"Feature","properties":{"name":"Qakh","name_az":"Qax","iso_a3":"AZE","place_type":"city","label_rank":3,"population":null},"geometry":{"type":"Point","coordinates":[46.918055555,41.419444444]}},{"type":"Feature","properties":{"name":"Qubadli","name_az":"Qubadlı","iso_a3":"AZE","place_type":"city","label_rank":3,"population":null},"geometry":{"type":"Point","coordinates":[46.57972222,39.34388889]}},{"type":"Feature","properties":{"name":"Saatlı","name_az":"Saatlı","iso_a3":"AZE","place_type":"city","label_rank":3,"population":null},"geometry":{"type":"Point","coordinates":[48.369722222,39.931111111]}},{"type":"Feature","properties":{"name":"Shabran","name_az":"Şabran","iso_a3":"AZE","place_type":"city","label_rank":3,"population":null},"geometry":{"type":"Point","coordinates":[48.98611,41.21139]}},{"type":"Feature","properties":{"name":"Shahbuz","name_az":"Şahbuz","iso_a3":"AZE","place_type":"city","label_rank":3,"population":null},"geometry":{"type":"Point","coordinates":[45.573267082,39.407328766]}},{"type":"Feature","properties":{"name":"Sharur","name_az":"Şərur","iso_a3":"AZE","place_type":"city","label_rank":3,"population":null},"geometry":{"type":"Point","coordinates":[44.991666666,39.550555555]}},{"type":"Feature","properties":{"name":"Siyazan","name_az":"Siyəzən","iso_a3":"AZE","place_type":"city","label_rank":3,"population":null},"geometry":{"type":"Point","coordinates":[49.106111111,41.078333333]}},{"type":"Feature","properties":{"name":"Ujar","name_az":"Ucar","iso_a3":"AZE","place_type":"city","label_rank":3,"population":null},"geometry":{"type":"Point","coordinates":[47.654166666,40.518333333]}},{"type":"Feature","properties":{"name":"Yardimli","name_az":"Yardımlı","iso_a3":"AZE","place_type":"city","label_rank":3,"population":null},"geometry":{"type":"Point","coordinates":[48.240555555,38.907777777]}},{"type":"Feature","properties":{"name":"Zardab","name_az":"Zərdab","iso_a3":"AZE","place_type":"city","label_rank":3,"population":null},"geometry":{"type":"Point","coordinates":[47.710833333,40.211111111]}},{"type":"Feature","properties":{"name":"Khizi","name_az":"Xızı","iso_a3":"AZE","place_type":"city","label_rank":3,"population":null},"geometry":{"type":"Point","coordinates":[49.069444444,40.911111111]}},{"type":"Feature","properties":{"name":"Khojaly","name_az":"Xocalı","iso_a3":"AZE","place_type":"city","label_rank":3,"population":null},"geometry":{"type":"Point","coordinates":[46.790277777,39.913055555]}},{"type":"Feature","properties":{"name":"Gobustan","name_az":"Qobustan","iso_a3":"AZE","place_type":"city","label_rank":3,"population":null},"geometry":{"type":"Point","coordinates":[48.933333333,40.533333333]}},{"type":"Feature","properties":{"name":"Lachin","name_az":"Laçın","iso_a3":"AZE","place_type":"city","label_rank":3,"population":null},"geometry":{"type":"Point","coordinates":[46.546944,39.640833]}},{"type":"Feature","properties":{"name":"Samukh","name_az":"Samux","iso_a3":"AZE","place_type":"city","label_rank":3,"population":null},"geometry":{"type":"Point","coordinates":[46.40889,40.76583]}},{"type":"Feature","properties":{"name":"Dalimammadli","name_az":"Dəliməmmədli","iso_a3":"AZE","place_type":"city","label_rank":3,"population":null},"geometry":{"type":"Point","coordinates":[46.574722222,40.6925]}},{"type":"Feature","properties":{"name":"Goytapa","name_az":"Göytəpə","iso_a3":"AZE","place_type":"city","label_rank":3,"population":null},"geometry":{"type":"Point","coordinates":[48.595277777,39.116666666]}},{"type":"Feature","properties":{"name":"Horadiz","name_az":"Horadiz","iso_a3":"AZE","place_type":"city","label_rank":3,"population":null},"geometry":{"type":"Point","coordinates":[47.33639,39.44778]}},{"type":"Feature","properties":{"name":"Khudat","name_az":"Xudat","iso_a3":"AZE","place_type":"city","label_rank":3,"population":null},"geometry":{"type":"Point","coordinates":[48.677222222,41.633888888]}},{"type":"Feature","properties":{"name":"Liman","name_az":"Liman","iso_a3":"AZE","place_type":"city","label_rank":3,"population":null},"geometry":{"type":"Point","coordinates":[48.813888888,38.873333333]}},{"type":"Feature","properties":{"name":"Askaran","name_az":"Əsgəran","iso_a3":"AZE","place_type":"city","label_rank":3,"population":null},"geometry":{"type":"Point","coordinates":[46.83278,39.93667]}},{"type":"Feature","properties":{"name":"Sugovushan","name_az":"Suqovuşan","iso_a3":"AZE","place_type":"settlement","label_rank":3,"population":null},"geometry":{"type":"Point","coordinates":[46.750222,40.325861]}}]}