{"type":"FeatureCollection","features":[{"type":"Feature","properties":{"id":"acg_security","name":"ACG Offshore Security Zone","kind":"energy_security"},"geometry":{"type":"Polygon","coordinates":[[[50.75,40.43093883273521],[50.739577683848786,40.43054862269938],[50.72925609988701,40.4293817640363],[50.719134996306146,40.42744953423556],[50.7093121633183,40.42477060667651],[50.6998824790905,40.421370868281926],[50.69093698525947,40.41728316683498],[50.682562001347385,40.41254699052424],[50.67483828694675,40.40720808296308],[50.667840259992964,40.401317997573024],[50.66163527880342,40.39493359581972],[50.65628299484253,40.38811649433823],[50.65183478238465,40.38093246647551],[50.64833325040251,40.3734508042088],[50.645811841119794,40.36574364676343],[50.6442945187461,40.35788528255158],[50.64379555097114,40.34995143128132],[50.64431938484656,40.34201851324232],[50.64586061773719,40.33416291286105],[50.64840406309129,40.32646024363411],[50.65192490986924,40.31898462149544],[50.6563889735919,40.31180795355339],[50.66175303613004,40.30499924894929],[50.667965270561304,40.29862395834432],[50.674965746677536,40.292743348238176],[50.68268701203464,40.287413915967036],[50.691054742805825,40.282686850821975],[50.69998845812699,40.2786075462784],[50.709402291113655,40.275215167835114],[50.719205809282016,40.272542280434735],[50.72930487672414,40.27061453887841],[50.73960255006817,40.26945044406326],[50.75,40.269061167264795],[50.76039744993183,40.26945044406326],[50.77069512327586,40.27061453887841],[50.780794190717984,40.272542280434735],[50.790597708886345,40.275215167835114],[50.800011541873,40.2786075462784],[50.808945257194175,40.282686850821975],[50.81731298796536,40.287413915967036],[50.825034253322464,40.292743348238176],[50.832034729438696,40.29862395834432],[50.838246963869956,40.30499924894929],[50.84361102640809,40.31180795355339],[50.84807509013076,40.31898462149544],[50.85159593690871,40.32646024363411],[50.85413938226281,40.33416291286105],[50.85568061515344,40.34201851324232],[50.85620444902886,40.34995143128132],[50.8557054812539,40.35788528255158],[50.8541881588802,40.36574364676343],[50.85166674959749,40.3734508042088],[50.848165217615346,40.38093246647551],[50.84371700515747,40.38811649433823],[50.83836472119658,40.39493359581972],[50.83215974000703,40.401317997573024],[50.82516171305325,40.40720808296308],[50.817437998652615,40.41254699052424],[50.809063014740524,40.41728316683498],[50.8001175209095,40.421370868281926],[50.7906878366817,40.42477060667651],[50.780865003693854,40.42744953423556],[50.77074390011299,40.4293817640363],[50.760422316151214,40.43054862269938],[50.75,40.43093883273521]]]}},{"type":"Feature","properties":{"id":"cable_protection","name":"Subsea Cable Protection Zone","kind":"infrastructure"},"geometry":{"type":"Polygon","coordinates":[[[49.9,42.689932036372454],[49.88800760381937,42.689498364259826],[49.876131198785025,42.68820154248621],[49.86448563973699,42.6860541136491],[49.85318352059602,42.68307684551627],[49.84233407299429,42.67929852765944],[49.83204209941889,42.67475568967413],[49.822406951720076,42.66949224387601],[49.81352156529239,42.66355905612892],[49.80547155857597,42.65701344918213],[49.79833440675693,42.649918643563694],[49.79217869768585,42.642343141688286],[49.78706347709313,42.63436006138324],[49.7830376891765,42.626046425512115],[49.78013971758319,42.61748241477575],[49.77839703072312,42.60875059109471],[49.777825934245215,42.59993509922118],[49.77843143239998,42.59112085439241],[49.7802071989125,42.58239272392307],[49.78313565691213,42.57383471063905],[49.78718816642068,42.5655291459849],[49.79232531689765,42.55755590049221],[49.79849732138963,42.54999161908138],[49.80564450793513,42.542908988386245],[49.81369790304386,42.53637604294779],[49.82257990130294,42.530455516720046],[49.83220501446497,42.525204245876544],[49.842480692746165,42.520672628402686],[49.85330821050814,42.516904145413484],[49.8645836080127,42.513934948552894],[49.87619868052768,42.51179351721501],[49.88804200571994,42.51050038868441],[49.9,42.51006796362755],[49.911957994280044,42.51050038868441],[49.923801319472304,42.51179351721501],[49.935416391987296,42.513934948552894],[49.946691789491844,42.516904145413484],[49.957519307253826,42.520672628402686],[49.96779498553503,42.525204245876544],[49.977420098697046,42.530455516720046],[49.98630209695614,42.53637604294779],[49.99435549206486,42.542908988386245],[50.00150267861035,42.54999161908138],[50.00767468310234,42.55755590049221],[50.01281183357931,42.5655291459849],[50.01686434308785,42.57383471063905],[50.01979280108749,42.58239272392307],[50.021568567600006,42.59112085439241],[50.022174065754776,42.59993509922118],[50.02160296927687,42.60875059109471],[50.0198602824168,42.61748241477575],[50.01696231082349,42.626046425512115],[50.01293652290687,42.63436006138324],[50.00782130231414,42.642343141688286],[50.00166559324307,42.649918643563694],[49.99452844142402,42.65701344918213],[49.9864784347076,42.66355905612892],[49.977593048279914,42.66949224387601],[49.96795790058109,42.67475568967413],[49.957665927005706,42.67929852765944],[49.94681647940397,42.68307684551627],[49.93551436026299,42.6860541136491],[49.92386880121497,42.68820154248621],[49.911992396180615,42.689498364259826],[49.9,42.689932036372454]]]}}],"properties":{"data_type":"synthetic","source":"MARINT Demo Dataset — illustrative security/protection zones","is_synthetic":true}}