{"type":"FeatureCollection","features":[{"type":"Feature","properties":{"name":"Gadabay","iso_a3":"AZE","population":8657,"is_capital":false},"geometry":{"type":"Point","coordinates":[45.8161111,40.5655556]}},{"type":"Feature","properties":{"name":"Goranboy","iso_a3":"AZE","population":7333,"is_capital":false},"geometry":{"type":"Point","coordinates":[46.7897222,40.6102778]}},{"type":"Feature","properties":{"name":"Tovuz","iso_a3":"AZE","population":12626,"is_capital":false},"geometry":{"type":"Point","coordinates":[45.6288889,40.9922222]}},{"type":"Feature","properties":{"name":"Agdam","iso_a3":"AZE","population":0,"is_capital":false},"geometry":{"type":"Point","coordinates":[45.5563889,40.9052778]}},{"type":"Feature","properties":{"name":"Qabala","iso_a3":"AZE","population":11867,"is_capital":false},"geometry":{"type":"Point","coordinates":[47.8458333,40.9813889]}},{"type":"Feature","properties":{"name":"Oğuz","iso_a3":"AZE","population":6876,"is_capital":false},"geometry":{"type":"Point","coordinates":[47.4583333,41.0708333]}},{"type":"Feature","properties":{"name":"Mangyshlak","iso_a3":"KAZ","population":147443,"is_capital":false},"geometry":{"type":"Point","coordinates":[51.1417356,43.6904551]}},{"type":"Feature","properties":{"name":"Celeken","iso_a3":"TKM","population":1206,"is_capital":false},"geometry":{"type":"Point","coordinates":[53.1225912,39.4361549]}},{"type":"Feature","properties":{"name":"Shahrud","iso_a3":"IRN","population":131889,"is_capital":false},"geometry":{"type":"Point","coordinates":[54.9628877,36.4228788]}},{"type":"Feature","properties":{"name":"Zanjan","iso_a3":"IRN","population":357471,"is_capital":false},"geometry":{"type":"Point","coordinates":[48.5000264,36.6700214]}},{"type":"Feature","properties":{"name":"Ahar","iso_a3":"IRN","population":103639,"is_capital":false},"geometry":{"type":"Point","coordinates":[47.0629048,38.4829081]}},{"type":"Feature","properties":{"name":"Ganca","iso_a3":"AZE","population":303268,"is_capital":false},"geometry":{"type":"Point","coordinates":[46.3500284,40.684996]}},{"type":"Feature","properties":{"name":"Yevlax","iso_a3":"AZE","population":53716,"is_capital":false},"geometry":{"type":"Point","coordinates":[47.1500313,40.6171965]}},{"type":"Feature","properties":{"name":"Sumqayt","iso_a3":"AZE","population":279159,"is_capital":false},"geometry":{"type":"Point","coordinates":[49.6299833,40.5800153]}},{"type":"Feature","properties":{"name":"Balkanabat","iso_a3":"TKM","population":110827,"is_capital":false},"geometry":{"type":"Point","coordinates":[54.3649397,39.5123802]}},{"type":"Feature","properties":{"name":"Kaspiysk","iso_a3":"RUS","population":81752,"is_capital":false},"geometry":{"type":"Point","coordinates":[47.6243693,42.8747331]}},{"type":"Feature","properties":{"name":"Derbent","iso_a3":"RUS","population":105965,"is_capital":false},"geometry":{"type":"Point","coordinates":[48.2774043,42.0578062]}},{"type":"Feature","properties":{"name":"Buynaksk","iso_a3":"RUS","population":75800,"is_capital":false},"geometry":{"type":"Point","coordinates":[47.113031,42.8334953]}},{"type":"Feature","properties":{"name":"Gonbad-e Kavus","iso_a3":"IRN","population":159982,"is_capital":false},"geometry":{"type":"Point","coordinates":[55.1714538,37.2518205]}},{"type":"Feature","properties":{"name":"Gorgan","iso_a3":"IRN","population":281023,"is_capital":false},"geometry":{"type":"Point","coordinates":[54.4800232,36.8303475]}},{"type":"Feature","properties":{"name":"Amol","iso_a3":"IRN","population":221650,"is_capital":false},"geometry":{"type":"Point","coordinates":[52.3633048,36.4713255]}},{"type":"Feature","properties":{"name":"Sari","iso_a3":"IRN","population":271467,"is_capital":false},"geometry":{"type":"Point","coordinates":[53.100004,36.5503904]}},{"type":"Feature","properties":{"name":"Semnan","iso_a3":"IRN","population":124826,"is_capital":false},"geometry":{"type":"Point","coordinates":[53.3743025,35.5547923]}},{"type":"Feature","properties":{"name":"Karaj","iso_a3":"IRN","population":1423000,"is_capital":false},"geometry":{"type":"Point","coordinates":[50.968059,35.8023046]}},{"type":"Feature","properties":{"name":"Fort Shevchenko","iso_a3":"KAZ","population":5213,"is_capital":false},"geometry":{"type":"Point","coordinates":[50.2666369,44.5170618]}},{"type":"Feature","properties":{"name":"Zhangaozen","iso_a3":"KAZ","population":8895,"is_capital":false},"geometry":{"type":"Point","coordinates":[52.8000223,43.3003919]}},{"type":"Feature","properties":{"name":"Mahabad","iso_a3":"IRN","population":162434,"is_capital":false},"geometry":{"type":"Point","coordinates":[45.7200411,36.770377]}},{"type":"Feature","properties":{"name":"Maragheh","iso_a3":"IRN","population":151385,"is_capital":false},"geometry":{"type":"Point","coordinates":[46.2200105,37.420389]}},{"type":"Feature","properties":{"name":"Bijar","iso_a3":"IRN","population":53871,"is_capital":false},"geometry":{"type":"Point","coordinates":[47.5936735,35.8740751]}},{"type":"Feature","properties":{"name":"Şirvan","iso_a3":"AZE","population":70684,"is_capital":false},"geometry":{"type":"Point","coordinates":[48.9202592,39.9323029]}},{"type":"Feature","properties":{"name":"Goycay","iso_a3":"AZE","population":35348,"is_capital":false},"geometry":{"type":"Point","coordinates":[47.7405896,40.6534217]}},{"type":"Feature","properties":{"name":"Lankaran","iso_a3":"AZE","population":60180,"is_capital":false},"geometry":{"type":"Point","coordinates":[48.8510644,38.7540027]}},{"type":"Feature","properties":{"name":"Saki","iso_a3":"AZE","population":64968,"is_capital":false},"geometry":{"type":"Point","coordinates":[47.1705468,41.1923293]}},{"type":"Feature","properties":{"name":"Stepanakert","iso_a3":"AZE","population":57473,"is_capital":false},"geometry":{"type":"Point","coordinates":[46.7519677,39.8156433]}},{"type":"Feature","properties":{"name":"Kapan","iso_a3":"AZE","population":42288,"is_capital":false},"geometry":{"type":"Point","coordinates":[46.4149857,39.2015206]}},{"type":"Feature","properties":{"name":"Makhachkala","iso_a3":"RUS","population":554981,"is_capital":false},"geometry":{"type":"Point","coordinates":[47.4999841,42.9800238]}},{"type":"Feature","properties":{"name":"Balyqshy","iso_a3":"KAZ","population":31624,"is_capital":false},"geometry":{"type":"Point","coordinates":[51.8665909,47.0665961]}},{"type":"Feature","properties":{"name":"Qulsary","iso_a3":"KAZ","population":37103,"is_capital":false},"geometry":{"type":"Point","coordinates":[54.0165372,46.9832678]}},{"type":"Feature","properties":{"name":"Ardabil","iso_a3":"IRN","population":414603,"is_capital":false},"geometry":{"type":"Point","coordinates":[48.3000386,38.2500025]}},{"type":"Feature","properties":{"name":"Qazvin","iso_a3":"IRN","population":464551,"is_capital":false},"geometry":{"type":"Point","coordinates":[49.9999865,36.27002]}},{"type":"Feature","properties":{"name":"Beyneu","iso_a3":"KAZ","population":32452,"is_capital":false},"geometry":{"type":"Point","coordinates":[55.100037,45.1833519]}},{"type":"Feature","properties":{"name":"Aqtau","iso_a3":"KAZ","population":4479,"is_capital":false},"geometry":{"type":"Point","coordinates":[51.2365002,43.6231887]}},{"type":"Feature","properties":{"name":"Rasht","iso_a3":"IRN","population":594590,"is_capital":false},"geometry":{"type":"Point","coordinates":[49.6299833,37.2999829]}},{"type":"Feature","properties":{"name":"Türkmenbaşy","iso_a3":"TKM","population":68292,"is_capital":false},"geometry":{"type":"Point","coordinates":[52.9696761,40.0230467]}},{"type":"Feature","properties":{"name":"Astrakhan","iso_a3":"RUS","population":502533,"is_capital":false},"geometry":{"type":"Point","coordinates":[48.054989,46.3486554]}},{"type":"Feature","properties":{"name":"Grozny","iso_a3":"RUS","population":226100,"is_capital":false},"geometry":{"type":"Point","coordinates":[45.6986987,43.3186853]}},{"type":"Feature","properties":{"name":"Atyrau","iso_a3":"KAZ","population":182753,"is_capital":false},"geometry":{"type":"Point","coordinates":[51.9200244,47.1126915]}},{"type":"Feature","properties":{"name":"Tabriz","iso_a3":"IRN","population":1413000,"is_capital":false},"geometry":{"type":"Point","coordinates":[46.2993,38.0882374]}},{"type":"Feature","properties":{"name":"Baku","iso_a3":"AZE","population":2122300,"is_capital":true},"geometry":{"type":"Point","coordinates":[49.8602713,40.3972179]}},{"type":"Feature","properties":{"name":"Tehran","iso_a3":"IRN","population":7873000,"is_capital":true},"geometry":{"type":"Point","coordinates":[51.4223982,35.6738886]}}],"properties":{"data_type":"real","source":"Natural Earth 1:10m Populated Places","source_url":"https://www.naturalearthdata.com/downloads/10m-cultural-vectors/10m-populated-places/","license":"Public Domain","is_synthetic":false,"processed_by":"MARINT geo pipeline (Natural Earth -> clipped GeoJSON)"}}