{"type":"FeatureCollection","features":[{"type":"Feature","properties":{"name":"Baku coastal radar coverage","port_id":"baku"},"geometry":{"type":"Polygon","coordinates":[[[49.5256,40.63899416367604],[49.47332799177599,40.63703373082061],[49.421568483004876,40.63117165572666],[49.37082867878972,40.62146541004909],[49.32160526112946,40.608010119815404],[49.27437929008842,40.59093758394766],[49.22961129672692,40.5704149172542],[49.18773662600054,40.546642834552564],[49.14916108318777,40.519853596788394],[49.114256931893685,40.490308643830076],[49.08335928547366,40.45829594198445],[49.0567629270177,40.42412707715222],[49.03471958602561,40.3881341268932],[49.01743569278043,40.35066634648864],[49.005070624371385,40.312086705369104],[48.997735449494236,40.27276831103791],[48.99549217270615,40.23309075788527],[48.99835347285015,40.19343643809254],[49.00628292497659,40.15418685121093],[49.01919569033429,40.11571894801089],[49.03695965491144,40.078401542886],[49.0593969935795,40.04259182750952],[49.08628613411382,40.008632016629335],[49.11736409319355,39.976846154895114],[49.15232915486701,39.9475371114814],[49.1908438608423,39.920983787038594],[49.232538281254755,39.89743855520363],[49.27701353419603,39.877124958558646],[49.323845522189515,39.86023567656046],[49.372588853889404,39.846930780593475],[49.422780919497775,39.83733628893181],[49.4739460886738,39.83154303204272],[49.5256,39.82960583632394],[49.577253911326196,39.83154303204272],[49.628419080502226,39.83733628893181],[49.6786111461106,39.846930780593475],[49.727354477810486,39.86023567656046],[49.774186465803965,39.877124958558646],[49.81866171874524,39.89743855520363],[49.860356139157695,39.920983787038594],[49.898870845132976,39.9475371114814],[49.93383590680644,39.976846154895114],[49.96491386588618,40.008632016629335],[49.9918030064205,40.04259182750952],[50.01424034508855,40.078401542886],[50.0320043096657,40.11571894801089],[50.0449170750234,40.15418685121093],[50.052846527149846,40.19343643809254],[50.05570782729385,40.23309075788527],[50.053464550505765,40.27276831103791],[50.04612937562862,40.312086705369104],[50.03376430721957,40.35066634648864],[50.016480413974385,40.3881341268932],[49.9944370729823,40.42412707715222],[49.96784071452634,40.45829594198445],[49.936943068106316,40.490308643830076],[49.90203891681223,40.519853596788394],[49.86346337399946,40.546642834552564],[49.82158870327308,40.5704149172542],[49.776820709911576,40.59093758394766],[49.72959473887054,40.608010119815404],[49.680371321210266,40.62146541004909],[49.629631516995126,40.63117165572666],[49.57787200822401,40.63703373082061],[49.5256,40.63899416367604]]]}},{"type":"Feature","properties":{"name":"Alat coastal radar coverage","port_id":"alat"},"geometry":{"type":"Polygon","coordinates":[[[49.44639999999999,40.37459416367605],[49.39433364080461,40.37263384042074],[49.34277768000038,40.366772089839664],[49.29223724666146,40.35706637089632],[49.24320699638329,40.343611789029005],[49.196166036177466,40.326540115492655],[49.15157303985917,40.30601843145052],[49.10986161177113,40.28224741343109],[49.0714359520873,40.25545928096075],[49.036666871481984,40.22591543098957],[49.00588819680747,40.19390378708972],[48.97939360278246,40.1597358942775],[48.95743389774771,40.123743792663284],[48.940214784483544,40.08627670495422],[48.92789511008663,40.047697574123475],[48.920585612131006,40.00837948832878],[48.91834816193315,39.96870203043966],[48.9211954998147,39.92904758934795],[48.929091451896504,39.88979766963361],[48.941951613221384,39.85132923518201],[48.959644477919525,39.81401112104929],[48.981992993705155,39.778200546297086],[49.00877651520684,39.74423975871658],[49.03973312844977,39.71245284037852],[49.07456231717342,39.68314270082219],[49.1129279405197,39.65658828247047],[49.15446149089213,39.633042000560295],[49.19876560039429,39.61272743753524],[49.24541776412734,39.59583730948103],[49.29397424869344,39.58253171981018],[49.34397415444385,39.57293671303137],[49.394943600269094,39.56714313907809],[49.44639999999999,39.56520583632397],[49.49785639973089,39.56714313907809],[49.54882584555614,39.57293671303137],[49.59882575130655,39.58253171981018],[49.64738223587264,39.59583730948103],[49.6940343996057,39.61272743753524],[49.738338509107855,39.633042000560295],[49.77987205948029,39.65658828247047],[49.818237682826556,39.68314270082219],[49.85306687155022,39.71245284037852],[49.88402348479315,39.74423975871658],[49.91080700629483,39.778200546297086],[49.933155522080455,39.81401112104929],[49.950848386778596,39.85132923518201],[49.96370854810348,39.88979766963361],[49.971604500185286,39.92904758934795],[49.97445183806683,39.96870203043966],[49.97221438786898,40.00837948832878],[49.96490488991335,40.047697574123475],[49.95258521551644,40.08627670495422],[49.935366102252274,40.123743792663284],[49.91340639721752,40.1597358942775],[49.88691180319251,40.19390378708972],[49.856133128518,40.22591543098957],[49.82136404791268,40.25545928096075],[49.78293838822885,40.28224741343109],[49.741226960140814,40.30601843145052],[49.69663396382252,40.326540115492655],[49.64959300361669,40.343611789029005],[49.60056275333853,40.35706637089632],[49.550022319999606,40.366772089839664],[49.498466359195376,40.37263384042074],[49.44639999999999,40.37459416367605]]]}},{"type":"Feature","properties":{"name":"Aktau coastal radar coverage","port_id":"aktau"},"geometry":{"type":"Polygon","coordinates":[[[51.15749999999999,44.05719416367603],[51.102305473279976,44.05523222965114],[51.0476533314182,44.04936570984512],[50.994080307717645,44.039652249950024],[50.942111904298756,44.02618725831447],[50.89225695486791,44.0091029131948],[50.845002397481935,43.9885667906331],[50.80080832073545,43.964780130251334],[50.76010334146501,43.937975760584415],[50.723280365753986,43.90841570948467],[50.69069277794384,43.87638852855339],[50.66265109473779,43.842206363447126],[50.639420113550926,43.806201804236316],[50.6212165762464,43.768724551752705],[50.60820736150941,43.73013793705104],[50.60050821154266,43.690815331751054],[50.5981829916784,43.651136487147],[50.601243475023615,43.61148383961655],[50.609649638481656,43.57223881907655],[50.62331045148314,43.53377819607436],[50.6420851345404,43.49647050162448],[50.66578486130639,43.46067255215955],[50.69417487514052,43.42672611001278],[50.726976989206996,43.39495470773885],[50.763872437784244,43.36566066235607],[50.80450504566487,43.339122303293564],[50.84848468218255,43.315591435487356],[50.89539096642223,43.29529105671524],[50.94477719045885,43.27841334591223],[50.9961744279401,43.26511793688117],[51.049095795894395,43.25553048951563],[51.10304083823733,43.24974156838782],[51.15749999999999,43.24780583632395],[51.211959161762664,43.24974156838782],[51.26590420410559,43.25553048951563],[51.318825572059886,43.26511793688117],[51.370222809541126,43.27841334591223],[51.41960903357776,43.29529105671524],[51.466515317817425,43.315591435487356],[51.510494954335115,43.339122303293564],[51.55112756221575,43.36566066235607],[51.58802301079299,43.39495470773885],[51.62082512485946,43.42672611001278],[51.64921513869359,43.46067255215955],[51.67291486545959,43.49647050162448],[51.69168954851685,43.53377819607436],[51.70535036151832,43.57223881907655],[51.71375652497637,43.61148383961655],[51.71681700832158,43.651136487147],[51.714491788457316,43.690815331751054],[51.70679263849058,43.73013793705104],[51.693783423753594,43.768724551752705],[51.675579886449064,43.806201804236316],[51.6523489052622,43.842206363447126],[51.62430722205615,43.876388528553385],[51.591719634246,43.90841570948467],[51.554896658534965,43.937975760584415],[51.514191679264535,43.964780130251334],[51.46999760251804,43.9885667906331],[51.42274304513207,44.0091029131948],[51.37288809570122,44.02618725831447],[51.32091969228233,44.039652249950024],[51.26734666858179,44.04936570984512],[51.21269452672001,44.05523222965114],[51.15749999999999,44.05719416367603]]]}},{"type":"Feature","properties":{"name":"Turkmenbashi coastal radar coverage","port_id":"turkmenbashi"},"geometry":{"type":"Polygon","coordinates":[[[53.033,40.40469416367605],[52.98091036672411,40.402733827987056],[52.92933136961366,40.3968720405913],[52.87876837268462,40.38716626189195],[52.82971626085915,40.373711599662926],[52.7826543621758,40.356639828297695],[52.73804156063593,40.33611803277616],[52.69631165757109,40.312346893970435],[52.65786903481067,40.28555863610554],[52.62308466746495,40.25601466100041],[52.59229252798954,40.2240028970753],[52.56578641654896,40.1898348939848],[52.543817245744314,40.15384269608795],[52.52659080070119,40.11637552978763],[52.51426598850969,40.077796341058864],[52.50695358423108,40.03847822025448],[52.50471547427425,39.99880075155143],[52.507564392015844,39.959146324215155],[52.51546413517401,39.91989644225549],[52.528330249708105,39.881428068070306],[52.546031160931584,39.844110034371816],[52.568389729100126,39.80829955711461],[52.595185203951644,39.77433888034118],[52.62615555049185,39.74255208187678],[52.66100011668672,39.71324206668109],[52.69938261257679,39.68668777243765],[52.74093436959752,39.66314160966349],[52.78525784849917,39.64282715627948],[52.83193036413609,39.62593712421536],[52.88050799546374,39.61263161324965],[52.93052964927745,39.60303666491432],[52.981521246487674,39.59724312693417],[53.033,39.59530583632395],[53.08447875351232,39.59724312693417],[53.13547035072256,39.60303666491432],[53.185492004536265,39.61263161324965],[53.23406963586391,39.62593712421536],[53.28074215150084,39.64282715627948],[53.325065630402484,39.66314160966349],[53.366617387423204,39.68668777243765],[53.40499988331329,39.71324206668109],[53.43984444950814,39.74255208187678],[53.47081479604835,39.77433888034118],[53.49761027089988,39.80829955711461],[53.51996883906842,39.844110034371816],[53.53766975029189,39.881428068070306],[53.550535864825996,39.91989644225549],[53.558435607984165,39.959146324215155],[53.561284525725746,39.99880075155143],[53.55904641576893,40.03847822025448],[53.55173401149031,40.077796341058864],[53.53940919929882,40.11637552978763],[53.52218275425569,40.15384269608795],[53.50021358345105,40.1898348939848],[53.47370747201046,40.2240028970753],[53.442915332535044,40.25601466100041],[53.408130965189336,40.28555863610554],[53.369688342428915,40.312346893970435],[53.32795843936408,40.33611803277616],[53.2833456378242,40.356639828297695],[53.23628373914086,40.373711599662926],[53.187231627315384,40.38716626189195],[53.136668630386346,40.3968720405913],[53.08508963327589,40.402733827987056],[53.033,40.40469416367605]]]}},{"type":"Feature","properties":{"name":"Astrakhan coastal radar coverage","port_id":"astrakhan"},"geometry":{"type":"Polygon","coordinates":[[[47.95,46.70469416367604],[47.89215866657862,46.70273094276411],[47.83488683510928,46.696860612806816],[47.77874802974182,46.68714096899652],[47.72429389682336,46.673667662170715],[47.672058458858636,46.65657319634229],[47.622552595365235,46.636025543547234],[47.57625881887112,46.612226393844786],[47.53362640831976,46.58540906275141],[47.49506695508766,46.55583608237983],[47.46095036891626,46.523796506027594],[47.43160138258128,46.48960295886449],[47.407296585329206,46.453588469678756],[47.38826200626538,46.416103120347856],[47.374671260219785,46.377510550806875],[47.366644260362726,46.33818435782217],[47.36424649417076,46.29850442587361],[47.36748885239859,46.25885322795426],[47.376327994594554,46.21961213316695],[47.39066722946707,46.18115775669035],[47.41035788408981,46.143858386067905],[47.43520113251014,46.10807051589833],[47.46495025175524,46.074135520938626],[47.499313271446816,46.04237649542017],[47.5379559821478,46.013095284076805],[47.580505267076546,45.98656972802861],[47.62655272182436,45.963051146294845],[47.67565852709254,45.94276207134734],[47.727355540114885,45.92589425478443],[47.781153571248566,45.91260695691644],[47.836543813104186,45.903025531814706],[47.89300339046075,45.897240317189684],[47.95,45.89530583632395],[48.00699660953926,45.897240317189684],[48.06345618689581,45.903025531814706],[48.11884642875144,45.91260695691644],[48.17264445988512,45.92589425478443],[48.22434147290746,45.94276207134734],[48.27344727817564,45.963051146294845],[48.31949473292346,45.98656972802861],[48.362044017852206,46.013095284076805],[48.40068672855318,46.04237649542017],[48.435049748244765,46.074135520938626],[48.46479886748987,46.10807051589833],[48.48964211591018,46.143858386067905],[48.509332770532936,46.18115775669035],[48.523672005405444,46.21961213316695],[48.53251114760142,46.25885322795426],[48.53575350582925,46.29850442587361],[48.533355739637265,46.33818435782217],[48.52532873978022,46.377510550806875],[48.51173799373463,46.416103120347856],[48.4927034146708,46.453588469678756],[48.46839861741873,46.48960295886449],[48.43904963108375,46.523796506027594],[48.40493304491235,46.55583608237983],[48.366373591680244,46.58540906275141],[48.32374118112888,46.612226393844786],[48.277447404634756,46.636025543547234],[48.22794154114137,46.65657319634229],[48.17570610317663,46.673667662170715],[48.12125197025818,46.68714096899652],[48.065113164890725,46.696860612806816],[48.00784133342139,46.70273094276411],[47.95,46.70469416367604]]]}},{"type":"Feature","properties":{"name":"Makhachkala coastal radar coverage","port_id":"makhachkala"},"geometry":{"type":"Polygon","coordinates":[[[47.5,43.387994163676034],[47.44541854906315,43.38603253670309],[47.391373209195216,43.380166926015725],[47.338394515087906,43.3704549416769],[47.28700191926533,43.356991934241],[47.237698426049036,43.339910004316415],[47.19096543165898,43.319376633542454],[47.1472578327742,43.29559295414088],[47.106999460690204,43.268791678508684],[47.07057889206989,43.23923471420959],[47.038345680393185,43.20721049313285],[47.01060704478545,43.17303104647627],[46.98762504516911,43.13702885954524],[46.969614264856766,43.099553542130266],[46.95674001399325,43.0609683514337],[46.94911705984207,43.02164660518217],[46.94680888295839,42.98196802271165],[46.94982745191989,42.94231503148997],[46.95813350359344,42.903069075791805],[46.97163731095881,42.86460696311689],[46.990199916316236,42.827297282498364],[47.01363480427135,42.791496927137445],[47.041709986190476,42.75754775187875],[47.074150465799,42.72577339395303],[47.11064105419163,42.696476283209826],[47.150829501653554,42.66993486577635],[47.19432991327101,42.646401062747444],[47.24072641524796,42.62609798315897],[47.28957703905205,42.60921790814555],[47.340417790902976,42.595920560847155],[47.392766874610146,42.58633167431757],[47.446129036291225,42.58054186740522],[47.5,42.57860583632395],[47.55387096370879,42.58054186740522],[47.60723312538986,42.58633167431757],[47.65958220909703,42.595920560847155],[47.710422960947966,42.60921790814555],[47.75927358475204,42.62609798315897],[47.805670086729,42.646401062747444],[47.849170498346446,42.66993486577635],[47.88935894580837,42.696476283209826],[47.925849534201014,42.72577339395303],[47.95829001380954,42.75754775187875],[47.98636519572866,42.791496927137445],[48.00980008368377,42.827297282498364],[48.028362689041195,42.86460696311689],[48.04186649640658,42.903069075791805],[48.05017254808011,42.94231503148997],[48.05319111704161,42.98196802271165],[48.05088294015794,43.02164660518217],[48.04325998600675,43.0609683514337],[48.030385735143234,43.099553542130266],[48.012374954830904,43.13702885954524],[47.98939295521456,43.17303104647627],[47.96165431960683,43.20721049313285],[47.92942110793012,43.23923471420959],[47.893000539309796,43.268791678508684],[47.85274216722581,43.29559295414088],[47.809034568341026,43.319376633542454],[47.76230157395097,43.339910004316415],[47.712998080734685,43.356991934241],[47.6616054849121,43.3704549416769],[47.608626790804784,43.380166926015725],[47.55458145093686,43.38603253670309],[47.5,43.387994163676034]]]}},{"type":"Feature","properties":{"name":"Bandar Anzali coastal radar coverage","port_id":"bandar_anzali"},"geometry":{"type":"Polygon","coordinates":[[[49.47,37.875494163676045],[49.41974884606923,37.8735348359955],[49.36998955334456,37.867676033225045],[49.32120893420842,37.857975099137114],[49.27388376469028,37.844526952286806],[49.228475918387666,37.82746311278414],[49.185427679753374,37.806950356353546],[49.1451572913981,37.78318901188522],[49.10805478586831,37.7564109227922],[49.07447814738086,37.72687709623187],[49.04474984337989,37.69487506757267],[49.01915375969411,37.66071601034596],[48.997932566685094,37.624731624288195],[48.98128553725741,37.58727083593641],[48.969366831112474,37.548696347587494],[48.96228425331292,37.50938107128004],[48.960098489213976,37.46970448482677],[48.9628228122136,37.430048946846505],[48.97042325565883,37.39079600725274],[48.982819235673176,37.35232274879359],[48.999884607674545,37.31499819404855],[49.0214491359401,37.27917981081673],[49.047300352735434,37.245210147123004],[49.07718578122937,37.213413625165494],[49.110815494622024,37.18409352146871],[49.14786498256862,37.15752915832715],[49.18797829502619,37.13397332935408],[49.23077143302122,37.11364997961698],[49.27583595546936,37.096752158464135],[49.322742771011754,37.08344026074445],[49.37104608380818,37.073840569706796],[49.42028746229192,37.0680441124436],[49.47,37.066105836323956],[49.519712537708074,37.0680441124436],[49.5689539161918,37.073840569706796],[49.61725722898824,37.08344026074445],[49.66416404453064,37.096752158464135],[49.709228566978766,37.11364997961698],[49.75202170497381,37.13397332935408],[49.79213501743138,37.15752915832715],[49.82918450537796,37.18409352146871],[49.86281421877062,37.213413625165494],[49.89269964726456,37.245210147123004],[49.91855086405989,37.27917981081673],[49.940115392325445,37.31499819404855],[49.957180764326814,37.35232274879359],[49.96957674434117,37.39079600725274],[49.97717718778639,37.430048946846505],[49.97990151078602,37.46970448482677],[49.97771574668707,37.50938107128004],[49.970633168887524,37.548696347587494],[49.95871446274257,37.58727083593641],[49.94206743331489,37.624731624288195],[49.92084624030587,37.66071601034596],[49.8952501566201,37.69487506757267],[49.865521852619125,37.72687709623187],[49.831945214131686,37.7564109227922],[49.794842708601884,37.78318901188522],[49.75457232024661,37.806950356353546],[49.71152408161232,37.82746311278414],[49.66611623530971,37.844526952286806],[49.61879106579157,37.857975099137114],[49.570010446655424,37.867676033225045],[49.52025115393076,37.8735348359955],[49.47,37.875494163676045]]]}},{"type":"Feature","properties":{"name":"Amirabad coastal radar coverage","port_id":"amirabad"},"geometry":{"type":"Polygon","coordinates":[[[53.365,37.25469416367605],[53.31516585429471,37.25273507277331],[53.26581931292172,37.24687697109003],[53.2174429819462,37.23717717502758],[53.17050953131208,37.223730558732534],[53.12547687670152,37.20666858263139],[53.08278353821985,37.1861579498547],[53.04284422982452,37.16239890665821],[53.006045729320945,37.13562320703755],[52.97274307387816,37.10609176546276],[52.943256120521205,37.07409202497189],[52.91786650509539,37.03993507071851],[52.89681502693741,37.00395252143653],[52.88029948009226,36.96649323315129],[52.86847294554169,36.92791985082816],[52.86144255270035,36.888605244515865],[52.85926871251558,36.848928866933576],[52.861964818976695,36.80927306939617],[52.869497410781904,36.77001941250702],[52.88178678037701,36.73154500721165],[52.89870801360532,36.69421892064334],[52.92009243979937,36.65839867974503],[52.94572946929396,36.62442690396678],[52.97536879301964,36.59262809645384],[53.008722917005684,36.563305621096816],[53.0454700032319,36.53673889064733],[53.08525698726291,36.513180788839385],[53.127702942414984,36.49285534712519],[53.17240265978362,36.475955694255525],[53.21893041324043,36.462642294525246],[53.26684387843226,36.45304148807792],[53.31568817483696,36.447244344228395],[53.365,36.44530583632396],[53.41431182516304,36.447244344228395],[53.46315612156775,36.45304148807792],[53.511069586759575,36.462642294525246],[53.557597340216375,36.475955694255525],[53.60229705758503,36.49285534712519],[53.64474301273709,36.513180788839385],[53.6845299967681,36.53673889064733],[53.72127708299431,36.563305621096816],[53.754631206980356,36.59262809645384],[53.784270530706046,36.62442690396678],[53.809907560200635,36.65839867974503],[53.831291986394675,36.69421892064334],[53.84821321962299,36.73154500721165],[53.86050258921811,36.77001941250702],[53.868035181023316,36.80927306939617],[53.870731287484425,36.848928866933576],[53.86855744729965,36.888605244515865],[53.861527054458314,36.92791985082816],[53.849700519907735,36.96649323315129],[53.83318497306259,37.00395252143653],[53.81213349490462,37.03993507071851],[53.7867438794788,37.07409202497189],[53.75725692612183,37.10609176546276],[53.723954270679066,37.13562320703755],[53.68715577017549,37.16239890665821],[53.64721646178016,37.1861579498547],[53.604523123298485,37.20666858263139],[53.559490468687926,37.223730558732534],[53.5125570180538,37.23717717502758],[53.464180687078276,37.24687697109003],[53.41483414570529,37.25273507277331],[53.365,37.25469416367605]]]}}],"properties":{"data_type":"synthetic","source":"MARINT Demo Dataset — illustrative coverage rings, not real sensor footprints","is_synthetic":true}}